GLOBALSTAR M023         
1 25621U 99004A   24320.78113109 -.00000035  00000+0  38192-3 0  9993
2 25621  52.0123 343.2630 0010079  17.5572 153.6323 12.62483023188771
GLOBALSTAR M040         
1 25622U 99004B   24320.83128008 -.00000064  00000+0  21991-3 0  9995
2 25622  51.9935 346.9451 0000542 291.5157 239.5394 12.61990313188315
GLOBALSTAR M036         
1 25623U 99004C   24320.77418236 -.00000085  00000+0 -35799-4 0  9990
2 25623  51.9965  82.8213 0010623   7.8296 142.9429 11.86580527153646
GLOBALSTAR M038         
1 25624U 99004D   24320.75641189 -.00000056  00000+0  32360-3 0  9991
2 25624  51.9989 326.2226 0001842 336.9539 194.8925 12.32513730176052
GLOBALSTAR M022         
1 25649U 99012A   24320.97264962 -.00000046  00000+0  49330-3 0  9995
2 25649  52.0008 150.5129 0003496 101.2479  65.7071 12.02491552150803
GLOBALSTAR M041         
1 25650U 99012B   24321.47398792 -.00000050  00000+0  45656-3 0  9994
2 25650  52.0049  24.1156 0001975 254.5538 105.5080 11.96661305153065
GLOBALSTAR M046         
1 25651U 99012C   24320.80379120 -.00000157  00000+0 -75423-3 0  9999
2 25651  52.0034 108.8925 0002648 162.0696 345.7867 12.09401073157840
GLOBALSTAR M037         
1 25652U 99012D   24320.90694208 -.00000060  00000+0  24173-3 0  9996
2 25652  51.9985 113.5723 0002910  85.5889  80.0155 12.62425752184330
